ONEWEB-0162             
1 48056U 21025Q   26168.12987086 -.00000163  00000+0 -48210-3 0  9996
2 48056  87.8958 320.2347 0001971  94.0561 266.0793 13.13469650253533
ONEWEB-0155             
1 48057U 21025R   26168.13677449 -.00000325  00000+0 -92380-3 0  9994
2 48057  87.8958 320.2295 0001832 102.3360 257.7974 13.13469943253670
ONEWEB-0149             
1 48058U 21025S   26168.15878988 -.00000057  00000+0 -19030-3 0  9991
2 48058  87.8961 320.2288 0002027  93.7300 266.4061 13.13470755253487
ONEWEB-0148             
1 48059U 21025T   26168.12154418  .00000042  00000+0  80216-4 0  9991
2 48059  87.8954 320.2431 0002415  92.6875 267.4531 13.13469604253604
ONEWEB-0160             
1 48060U 21025U   26168.13846354 -.00000304  00000+0 -86660-3 0  9992
2 48060  87.8953 320.2356 0001413  75.3683 284.7603 13.13470536253555
ONEWEB-0163             
1 48061U 21025V   26168.12322811 -.00000087  00000+0 -27184-3 0  9993
2 48061  87.8961 320.2332 0001994 103.9743 256.1608 13.13469981253671
ONEWEB-0159             
1 48062U 21025W   26168.11476872  .00000245  00000+0  63618-3 0  9996
2 48062  87.8963 320.2286 0001930 104.0407 256.0937 13.13470397253599
ONEWEB-0164             
1 48063U 21025X   26168.17232674  .00000289  00000+0  75513-3 0  9998
2 48063  87.8963 320.2235 0001784  96.1701 263.9631 13.13470881253584
ONEWEB-0167             
1 48064U 21025Y   26168.12407141 -.00000046  00000+0 -16048-3 0  9998
2 48064  87.8953 320.2428 0001730 118.1091 242.0213 13.13468105253564
ONEWEB-0166             
1 48065U 21025Z   26168.14691919 -.00000438  00000+0 -12352-2 0  9997
2 48065  87.8963 320.2097 0002046  96.3100 263.8263 13.13469534253649
ONEWEB-0151             
1 48066U 21025AA  26168.14861845 -.00000301  00000+0 -85818-3 0  9992
2 48066  87.8954 320.2261 0001749 100.3983 259.7343 13.13470472253586
ONEWEB-0170             
1 48067U 21025AB  26167.92855563 -.00000116  00000+0 -35335-3 0  9991
2 48067  87.8957 320.2720 0001376  96.6204 263.5081 13.13470515253512
ONEWEB-0168             
1 48068U 21025AC  26168.14184969 -.00000224  00000+0 -64750-3 0  9995
2 48068  87.8963 320.2291 0001968 100.9375 259.1975 13.13470632253555
ONEWEB-0173             
1 48069U 21025AD  26168.13338845 -.00000259  00000+0 -74385-3 0  9992
2 48069  87.8958 320.2326 0001950 107.9857 252.1485 13.13469867253795
ONEWEB-0171             
1 48070U 21025AE  26168.17063436  .00000283  00000+0  73928-3 0  9996
2 48070  87.8952 320.2334 0001759  98.8540 261.2788 13.13471385253610
ONEWEB-0172             
1 48071U 21025AF  26168.15030794 -.00000319  00000+0 -90726-3 0  9993
2 48071  87.8960 320.2274 0001801 102.5457 257.5873 13.13470666254504
ONEWEB-0174             
1 48072U 21025AG  26168.13170183 -.00000214  00000+0 -61988-3 0  9991
2 48072  87.8958 320.2302 0001997  96.5609 263.5747 13.13470047253825
ONEWEB-0175             
1 48073U 21025AH  26168.16217123 -.00000007  00000+0 -53870-4 0  9993
2 48073  87.8963 320.2086 0001545 103.4190 256.7112 13.13471227253486
ONEWEB-0177             
1 48074U 21025AJ  26168.17401712  .00000276  00000+0  72012-3 0  9998
2 48074  87.8960 320.2247 0002056 100.5074 259.6287 13.13471080253673
ONEWEB-0178             
1 48075U 21025AK  26167.96424019  .00000098  00000+0  23273-3 0  9997
2 48075  87.8946 320.2791 0001738 105.1351 254.9970 13.13467823253696
ONEWEB-0108             
1 48076U 21025AL  26168.15200951 -.00000207  00000+0 -60120-3 0  9993
2 48076  87.8962 320.2204 0001902  90.3601 269.7746 13.13470680253645
ONEWEB-0169             
1 48077U 21025AM  26168.18417794  .00000344  00000+0  90786-3 0  9993
2 48077  87.8956 320.2220 0001960  96.5014 263.6338 13.13470265252308
ONEWEB-0176             
1 48210U 21031A   26167.87452220  .00000175  00000+0  43704-3 0  9997
2 48210  87.8965 289.7615 0001885 103.8551 256.2789 13.14503291248274
ONEWEB-0184             
1 48211U 21031B   26168.07591205  .00000026  00000+0  36709-4 0  9991
2 48211  87.8971 289.7221 0001558 125.4134 234.7141 13.14503101248272
ONEWEB-0179             
1 48212U 21031C   26167.74395904  .00000205  00000+0  61917-4 0  9991
2 48212  87.8990 287.0790 0218699 258.6655  98.9896 14.25523338248981
ONEWEB-0180             
1 48213U 21031D   26168.07908705  .00000073  00000+0  16114-3 0  9999
2 48213  87.8970 289.7174 0002207 111.9430 248.1934 13.14503025248208
ONEWEB-0218             
1 48214U 21031E   26167.87293720  .00000202  00000+0  51021-3 0  9991
2 48214  87.8972 289.7578 0001826 128.2770 231.8524 13.14502298248332
ONEWEB-0209             
1 48215U 21031F   26167.86182666  .00000142  00000+0  34902-3 0  9999
2 48215  87.8963 289.7772 0002126 104.0045 256.1321 13.14501676248334
ONEWEB-0198             
1 48216U 21031G   26168.07447019 -.00000023  00000+0 -96050-4 0  9993
2 48216  87.8955 289.7341 0002084 113.0858 247.0492 13.14503122248474
ONEWEB-0189             
1 48217U 21031H   26167.85866519  .00000149  00000+0  36811-3 0  9994
2 48217  87.8968 289.7631 0002016 111.2124 248.9221 13.14503327248187
