OBJECT_NAME,OBJECT_ID,EPOCH,MEAN_MOTION,ECCENTRICITY,INCLINATION,RA_OF_ASC_NODE,ARG_OF_PERICENTER,MEAN_ANOMALY,EPHEMERIS_TYPE,CLASSIFICATION_TYPE,NORAD_CAT_ID,ELEMENT_SET_NO,REV_AT_EPOCH,BSTAR,MEAN_MOTION_DOT,MEAN_MOTION_DDOT
ONEWEB-0162,2021-025Q,2026-06-17T03:07:00.842304,13.13469650,.0001971,87.8958,320.2347,94.0561,266.0793,0,U,48056,999,25353,-.4821E-3,-.163E-5,0
ONEWEB-0155,2021-025R,2026-06-17T03:16:57.315936,13.13469943,.0001832,87.8958,320.2295,102.3360,257.7974,0,U,48057,999,25367,-.9238E-3,-.325E-5,0
ONEWEB-0149,2021-025S,2026-06-17T03:48:39.445632,13.13470755,.0002027,87.8961,320.2288,93.7300,266.4061,0,U,48058,999,25348,-.1903E-3,-.57E-6,0
ONEWEB-0148,2021-025T,2026-06-17T02:55:01.417152,13.13469604,.0002415,87.8954,320.2431,92.6875,267.4531,0,U,48059,999,25360,.80216E-4,.42E-6,0
ONEWEB-0160,2021-025U,2026-06-17T03:19:23.249856,13.13470536,.0001413,87.8953,320.2356,75.3683,284.7603,0,U,48060,999,25355,-.8666E-3,-.304E-5,0
ONEWEB-0163,2021-025V,2026-06-17T02:57:26.908704,13.13469981,.0001994,87.8961,320.2332,103.9743,256.1608,0,U,48061,999,25367,-.27184E-3,-.87E-6,0
ONEWEB-0159,2021-025W,2026-06-17T02:45:16.017408,13.13470397,.000193,87.8963,320.2286,104.0407,256.0937,0,U,48062,999,25359,.63618E-3,.245E-5,0
ONEWEB-0164,2021-025X,2026-06-17T04:08:09.030336,13.13470881,.0001784,87.8963,320.2235,96.1701,263.9631,0,U,48063,999,25358,.75513E-3,.289E-5,0
ONEWEB-0167,2021-025Y,2026-06-17T02:58:39.769824,13.13468105,.000173,87.8953,320.2428,118.1091,242.0213,0,U,48064,999,25356,-.16048E-3,-.46E-6,0
ONEWEB-0166,2021-025Z,2026-06-17T03:31:33.818016,13.13469534,.0002046,87.8963,320.2097,96.3100,263.8263,0,U,48065,999,25364,-.12352E-2,-.438E-5,0
ONEWEB-0151,2021-025AA,2026-06-17T03:34:00.634080,13.13470472,.0001749,87.8954,320.2261,100.3983,259.7343,0,U,48066,999,25358,-.85818E-3,-.301E-5,0
ONEWEB-0170,2021-025AB,2026-06-16T22:17:07.206432,13.13470515,.0001376,87.8957,320.2720,96.6204,263.5081,0,U,48067,999,25351,-.35335E-3,-.116E-5,0
ONEWEB-0168,2021-025AC,2026-06-17T03:24:15.813216,13.13470632,.0001968,87.8963,320.2291,100.9375,259.1975,0,U,48068,999,25355,-.6475E-3,-.224E-5,0
ONEWEB-0173,2021-025AD,2026-06-17T03:12:04.762080,13.13469867,.000195,87.8958,320.2326,107.9857,252.1485,0,U,48069,999,25379,-.74385E-3,-.259E-5,0
ONEWEB-0171,2021-025AE,2026-06-17T04:05:42.808704,13.13471385,.0001759,87.8952,320.2334,98.8540,261.2788,0,U,48070,999,25361,.73928E-3,.283E-5,0
ONEWEB-0172,2021-025AF,2026-06-17T03:36:26.606016,13.13470666,.0001801,87.8960,320.2274,102.5457,257.5873,0,U,48071,999,25450,-.90726E-3,-.319E-5,0
ONEWEB-0174,2021-025AG,2026-06-17T03:09:39.038112,13.13470047,.0001997,87.8958,320.2302,96.5609,263.5747,0,U,48072,999,25382,-.61988E-3,-.214E-5,0
ONEWEB-0175,2021-025AH,2026-06-17T03:53:31.594272,13.13471227,.0001545,87.8963,320.2086,103.4190,256.7112,0,U,48073,999,25348,-.5387E-4,-.7E-7,0
ONEWEB-0177,2021-025AJ,2026-06-17T04:10:35.079168,13.13471080,.0002056,87.8960,320.2247,100.5074,259.6287,0,U,48074,999,25367,.72012E-3,.276E-5,0
ONEWEB-0178,2021-025AK,2026-06-16T23:08:30.352416,13.13467823,.0001738,87.8946,320.2791,105.1351,254.9970,0,U,48075,999,25369,.23273E-3,.98E-6,0
ONEWEB-0108,2021-025AL,2026-06-17T03:38:53.621664,13.13470680,.0001902,87.8962,320.2204,90.3601,269.7746,0,U,48076,999,25364,-.6012E-3,-.207E-5,0
ONEWEB-0169,2021-025AM,2026-06-17T04:25:12.974016,13.13470265,.000196,87.8956,320.2220,96.5014,263.6338,0,U,48077,999,25230,.90786E-3,.344E-5,0
ONEWEB-0176,2021-031A,2026-06-16T20:59:18.718080,13.14503291,.0001885,87.8965,289.7615,103.8551,256.2789,0,U,48210,999,24827,.43704E-3,.175E-5,0
ONEWEB-0184,2021-031B,2026-06-17T01:49:18.801120,13.14503101,.0001558,87.8971,289.7221,125.4134,234.7141,0,U,48211,999,24827,.36709E-4,.26E-6,0
ONEWEB-0179,2021-031C,2026-06-16T17:51:18.061056,14.25523338,.0218699,87.8990,287.0790,258.6655,98.9896,0,U,48212,999,24898,.61917E-4,.205E-5,0
ONEWEB-0180,2021-031D,2026-06-17T01:53:53.121120,13.14503025,.0002207,87.8970,289.7174,111.9430,248.1934,0,U,48213,999,24820,.16114E-3,.73E-6,0
ONEWEB-0218,2021-031E,2026-06-16T20:57:01.774080,13.14502298,.0001826,87.8972,289.7578,128.2770,231.8524,0,U,48214,999,24833,.51021E-3,.202E-5,0
ONEWEB-0209,2021-031F,2026-06-16T20:41:01.823424,13.14501676,.0002126,87.8963,289.7772,104.0045,256.1321,0,U,48215,999,24833,.34902E-3,.142E-5,0
ONEWEB-0198,2021-031G,2026-06-17T01:47:14.224416,13.14503122,.0002084,87.8955,289.7341,113.0858,247.0492,0,U,48216,999,24847,-.9605E-4,-.23E-6,0
ONEWEB-0189,2021-031H,2026-06-16T20:36:28.672416,13.14503327,.0002016,87.8968,289.7631,111.2124,248.9221,0,U,48217,999,24818,.36811E-3,.149E-5,0
